1 44743U 19074AG  22365.57471779  .00004901  00000-0  34756-3 0  9990
2 44743  53.0548  52.5387 0002035  41.9872 318.1272 15.06412307172823
1 44743U 19074AG  22365.84010781  .00003117  00000-0  22805-3 0  9992
2 44743  53.0545  51.3476 0002073  40.3877 319.7266 15.06405749172862
1 44743U 19074AG  23001.17184818 -.00002440  00000-0 -14497-3 0  9997
2 44743  53.0555  49.8584 0002007  41.5788 318.5353 15.06393596172990
1 44743U 19074AG  23001.43723658 -.00002524  00000-0 -15061-3 0  9998
2 44743  53.0551  48.6669 0002094  42.1510 317.9640 15.06392433172950
1 44743U 19074AG  23001.83531511 -.00000299  00000-0 -11806-5 0  9999
2 44743  53.0554  46.8800 0002190  42.0428 318.0729 15.06398979173013
1 44743U 19074AG  23002.16704931 -.00000557  00000-0 -18465-4 0  9998
2 44743  53.0560  45.3907 0002192  44.2003 315.9161 15.06400224173144
1 44743U 19074AG  23002.49878567 -.00000686  00000-0 -27115-4 0  9996
2 44743  53.0550  43.9008 0002212  43.8393 316.2771 15.06397763173110
1 44743U 19074AG  23003.49399802  .00002236  00000-0  16899-3 0  9994
2 44743  53.0542  39.4329 0002168  42.4054 317.7102 15.06391069173348
1 44743U 19074AG  23004.35650508  .00002391  00000-0  17937-3 0  9999
2 44743  53.0540  35.5609 0002221  44.0193 316.0972 15.06402417173398
1 44743U 19074AG  23004.35650508  .00002391  00000-0  17937-3 0  9999
2 44743  53.0540  35.5609 0002221  44.0193 316.0972 15.06402417173477
1 44743U 19074AG  23005.48439744  .00003908  00000-0  28108-3 0  9998
2 44743  53.0546  30.4989 0002258  41.2853 318.8307 15.06409347173561
1 44743U 19074AG  23005.48439744  .00003908  00000-0  28108-3 0  9998
2 44743  53.0546  30.4989 0002258  41.2853 318.8307 15.06409347173640
1 44743U 19074AG  23005.74978398  .00002260  00000-0  17055-3 0  9999
2 44743  53.0548  29.3068 0002270  38.5222 321.5929 15.06407064173601
1 44743U 19074AG  23006.41326342 -.00005263  00000-0 -33482-3 0  9990
2 44743  53.0544  26.3276 0002140  32.8297 327.2825 15.06380962173784
1 44743U 19074AG  23006.47961538 -.00004733  00000-0 -29918-3 0  9998
2 44743  53.0544  26.0311 0002226  38.2877 321.8270 15.06378356173711
1 44743U 19074AG  23007.07673415 -.00000425  00000-0 -96188-5 0  9998
2 44743  53.0557  23.3503 0002115  33.0299 327.0822 15.06395293173806
1 44743U 19074AG  23007.07673415 -.00000425  00000-0 -96188-5 0  9998
2 44743  53.0557  23.3503 0002115  33.0299 327.0822 15.06395293173884
1 44743U 19074AG  23007.74020254  .00001014  00000-0  86967-4 0  9995
2 44743  53.0547  20.3718 0002194  35.9741 324.1395 15.06395270173909
1 44743U 19074AG  23008.40368061  .00000500  00000-0  52529-4 0  9996
2 44743  53.0535  17.3945 0002592  37.0608 323.0560 15.06387221174002
1 44743U 19074AG  23008.40368061  .00000500  00000-0  52529-4 0  9996
2 44743  53.0535  17.3945 0002592  37.0608 323.0560 15.06387221174080
1 44743U 19074AG  23008.73541499  .00002763  00000-0  20437-3 0  9995
2 44743  53.0552  15.9050 0002566  45.4832 314.6367 15.06392426174054
1 44743U 19074AG  23009.00079409  .00004572  00000-0  32561-3 0  9994
2 44743  53.0547  14.7138 0002230  30.1342 329.9775 15.06405826174171
1 44743U 19074AG  23009.39887622  .00003071  00000-0  22497-3 0  9990
2 44743  53.0544  12.9267 0002268  30.5334 329.5787 15.06403888174150
1 44743U 19074AG  23009.73061186  .00002399  00000-0  17990-3 0  9991
2 44743  53.0542  11.4373 0002182  36.6704 323.4434 15.06401324174204
1 44743U 19074AG  23009.73061186  .00002399  00000-0  17990-3 0  9991
2 44743  53.0542  11.4373 0002182  36.6704 323.4434 15.06401324174282
1 44743U 19074AG  23010.39407922  .00001970  00000-0  15111-3 0  9994
2 44743  53.0555   8.4579 0002162  38.4065 321.7077 15.06402739174306
1 44743U 19074AG  23011.12388887  .00002850  00000-0  21012-3 0  9999
2 44743  53.0553   5.1819 0002101  41.5588 318.5560 15.06411821174496
1 44743U 19074AG  23011.25658139  .00003291  00000-0  23964-3 0  9991
2 44743  53.0555   4.5867 0002222  39.4064 320.7086 15.06413494174433
1 44743U 19074AG  23011.85370620  .00001546  00000-0  12267-3 0  9998
2 44743  53.0556   1.9065 0002183  38.5274 321.5871 15.06403006174523
1 44743U 19074AG  23012.05274176  .00003259  00000-0  23756-3 0  9998
2 44743  53.0554   1.0126 0002132  39.0369 321.0774 15.06410119174637
1 44743U 19074AG  23012.78257368 -.00006168  00000-0 -39581-3 0  9999
2 44743  53.0555 357.7367 0001884  52.8890 307.2271 15.06371660174669
1 44743U 19074AG  23012.78257368 -.00006168  00000-0 -39581-3 0  9999
2 44743  53.0555 357.7367 0001884  52.8890 307.2271 15.06371660174748
1 44743U 19074AG  23013.11433292 -.00013737  00000-0 -90651-3 0  9994
2 44743  53.0562 356.2473 0001942  40.7629 319.3505 15.06340051174798
1 44743U 19074AG  23013.24703045 -.00012894  00000-0 -84963-3 0  9996
2 44743  53.0559 355.6517 0001861  43.3729 316.7406 15.06340115174732
1 44743U 19074AG  23013.64511011 -.00004831  00000-0 -30594-3 0  9993
2 44743  53.0550 353.8620 0002108  52.1581 307.9598 15.06361670174796
1 44743U 19074AG  23013.64511011 -.00004831  00000-0 -30594-3 0  9993
2 44743  53.0550 353.8620 0002108  52.1581 307.9598 15.06361670174875
1 44743U 19074AG  23014.10952114  .00001319  00000-0  10746-3 0  9991
2 44743  53.0544 351.7785 0001279 309.8021  50.2855 15.06389643174948
1 44743U 19074AG  23014.30855526  .00008537  00000-0  59103-3 0  9991
2 44743  53.0552 350.8837 0002161  46.7499 313.3670 15.06417730174972
1 44743U 19074AG  23014.90569826  .00004705  00000-0  33475-3 0  9999
2 44743  53.0567 348.2030 0000975  51.2216 308.8860 15.06375881175064
1 44743U 19074AG  23015.17107622  .00008914  00000-0  61656-3 0  9999
2 44743  53.0548 347.0137 0001497  62.3182 297.7959 15.06399153175101
1 44743U 19074AG  23015.30377004  .00006640  00000-0  46419-3 0  9991
2 44743  53.0543 346.4188 0001299  72.3619 287.7511 15.06401144175041
1 44743U 19074AG  23015.63549684  .00002764  00000-0  20431-3 0  9991
2 44743  53.0544 344.9287 0001138  68.1170 291.9940 15.06406595175095
1 44743U 19074AG  23016.16626074  .00003374  00000-0  24514-3 0  9993
2 44743  53.0541 342.5460 0001337  73.4488 286.6648 15.06423655175172
1 44743U 19074AG  23016.16626074  .00003374  00000-0  24514-3 0  9993
2 44743  53.0541 342.5460 0001337  73.4488 286.6648 15.06423655175251
1 44743U 19074AG  23016.76339964 -.00009075  00000-0 -59153-3 0  9991
2 44743  53.0535 339.8660 0001496  71.0979 289.0172 15.06372789175340
1 44743U 19074AG  23016.82974701 -.00006605  00000-0 -42520-3 0  9998
2 44743  53.0544 339.5684 0001371  77.0178 283.0964 15.06375266175270
1 44743U 19074AG  23017.16148252 -.00004401  00000-0 -27693-3 0  9996
2 44743  53.0537 338.0789 0001448  67.8186 292.2956 15.06376736175404
1 44743U 19074AG  23017.29417788 -.00001809  00000-0 -10266-3 0  9990
2 44743  53.0539 337.4825 0001547  69.8651 290.2505 15.06378245175347
1 44743U 19074AG  23018.22303378  .00038698  00000-0  26002-2 0  9991
2 44743  53.0537 333.3126 0001563  70.2437 289.8721 15.06434679175562
1 44743U 19074AG  23018.55476727  .00011594  00000-0  79525-3 0  9991
2 44743  53.0544 331.8218 0002138  66.0642 294.0571 15.06433789175613
1 44743U 19074AG  23019.15187722  .00028116  00000-0  18970-2 0  9996
2 44743  53.0538 329.1437 0001186  84.0527 276.0597 15.06436802175700
1 44743U 19074AG  23019.54996289  .00006088  00000-0  42717-3 0  9996
2 44743  53.0541 327.3552 0001862  89.7433 270.3770 15.06406453175687
1 44743U 19074AG  23019.81534818  .00006623  00000-0  46313-3 0  9993
2 44743  53.0537 326.1667 0001551 113.4601 246.6551 15.06397358175803
1 44743U 19074AG  23020.14708921  .00013210  00000-0  90453-3 0  9993
2 44743  53.0539 324.6768 0001604 118.5803 241.5348 15.06381985175851
1 44743U 19074AG  23020.27978230  .00005576  00000-0  39298-3 0  9995
2 44743  53.0531 324.0802 0001673 111.7276 248.3891 15.06393078175798
1 44743U 19074AG  23021.20863844  .00021480  00000-0  14557-2 0  9995
2 44743  53.0542 319.9102 0001448  99.6896 260.4257 15.06420785176011
1 44743U 19074AG  23021.54037676  .00012315  00000-0  84400-3 0  9990
2 44743  53.0542 318.4197 0001800  93.8317 266.2878 15.06407263176069
1 44743U 19074AG  23022.20384116  .00015398  00000-0  10499-2 0  9998
2 44743  53.0536 315.4428 0002028  84.8106 275.3114 15.06415500176163
1 44743U 19074AG  23022.53557995  .00000804  00000-0  72882-4 0  9993
2 44743  53.0555 313.9536 0002460  72.1957 287.9300 15.06394399176215
1 44743U 19074AG  23024.12790013  .00018820  00000-0  12780-2 0  9996
2 44743  53.0551 306.8010 0001592  93.8058 266.3113 15.06427553176454
1 44743U 19074AG  23024.79136823  .00001200  00000-0  99430-4 0  9995
2 44743  53.0547 303.8229 0001256 128.1678 231.9424 15.06403640176550
1 44743U 19074AG  23025.45483690  .00013977  00000-0  95499-3 0  9990
2 44743  53.0539 300.8447 0001062  94.8608 265.2502 15.06412951176571
1 44743U 19074AG  23026.11831111  .00003804  00000-0  27414-3 0  9999
2 44743  53.0532 297.8693 0001097  90.4093 269.7022 15.06399086176670
1 44743U 19074AG  23026.11831111  .00003804  00000-0  27414-3 0  9999
2 44743  53.0532 297.8693 0001097  90.4093 269.7022 15.06399086176759
1 44743U 19074AG  23027.11351494  .00005953  00000-0  41814-3 0  9998
2 44743  53.0522 293.4014 0001010  89.4331 270.6774 15.06406710176821
1 44743U 19074AG  23028.10871813  .00003526  00000-0  25544-3 0  9996
2 44743  53.0522 288.9328 0001171  88.5677 271.5446 15.06405566177059
1 44743U 19074AG  23028.50680296  .00001276  00000-0  10458-3 0  9991
2 44743  53.0511 287.1453 0001356  90.2278 269.8866 15.06397229177039
1 44743U 19074AG  23028.70584347 -.00000162  00000-0  80412-5 0  9996
2 44743  53.0510 286.2519 0001313  94.5944 265.5195 15.06397194177142
1 44743U 19074AG  23028.90488400  .00000630  00000-0  61205-4 0  9998
2 44743  53.0526 285.3592 0001210  85.2023 274.9104 15.06398966177097
1 44743U 19074AG  23029.83374080  .00003102  00000-0  22708-3 0  9990
2 44743  53.0521 281.1899 0001329  85.8331 274.2809 15.06396974177233
1 44743U 19074AG  23030.09912468  .00002550  00000-0  19001-3 0  9996
2 44743  53.0523 279.9973 0001343  90.8935 269.2208 15.06402875177353
1 44743U 19074AG  23030.49720786 -.00000060  00000-0  14833-4 0  9994
2 44743  53.0519 278.2111 0001325  88.2246 271.8894 15.06398275177336
1 44743U 19074AG  23030.49720786 -.00000060  00000-0  14833-4 0  9994
2 44743  53.0519 278.2111 0001325  88.2246 271.8894 15.06398275177415
1 44743U 19074AG  23030.89529199  .00001149  00000-0  95995-4 0  9999
2 44743  53.0527 276.4239 0001213  82.2704 277.8423 15.06395347177392
1 44743U 19074AG  23031.09432962  .00000846  00000-0  75702-4 0  9990
2 44743  53.0529 275.5299 0001230  89.8854 270.2276 15.06399891177423
1 44743U 19074AG  23031.69145230  .00000616  00000-0  60273-4 0  9997
2 44743  53.0528 272.8491 0001190  94.1402 265.9723 15.06398979177591
1 44743U 19074AG  23031.95683555  .00001097  00000-0  92499-4 0  9992
2 44743  53.0528 271.6578 0001186  93.2327 266.8798 15.06403367177551
